start=new Date('2022-09-09T00:00:00.000Z').valueOf();
sats=[{"TIME_SYSTEM":"UTC","LAUNCH_DATE":"2021-05-15","ECCENTRICITY":"0.00012070","MEAN_MOTION_DOT":"0.00003380","GP_ID":"212091700","SITE":"AFETR","OBJECT_TYPE":"PAYLOAD","OBJECT_NAME":"STARLINK-2190","ARG_OF_PERICENTER":"81.6376","MEAN_MOTION":"15.06390747","CENTER_NAME":"EARTH","CLASSIFICATION_TYPE":"U","FILE":"3564431","RCS_SIZE":"LARGE","SEMIMAJOR_AXIS":"6925.377","INCLINATION":"53.0537","RA_OF_ASC_NODE":"108.6638","ELEMENT_SET_NO":"999","EPHEMERIS_TYPE":"0","BSTAR":"0.00024574000000","MEAN_ANOMALY":"278.4750","OBJECT_ID":"2021-041M","TLE_LINE2":"2 48564  53.0537 108.6638 0001207  81.6376 278.4750 15.06390747 72582","NORAD_CAT_ID":"48564","APOAPSIS":"548.078","PERIOD":"95.593","DECAY_DATE":null,"MEAN_MOTION_DDOT":"0.0000000000000","COUNTRY_CODE":"US","REV_AT_EPOCH":"7258","MEAN_ELEMENT_THEORY":"SGP4","REF_FRAME":"TEME","TLE_LINE1":"1 48564U 21041M   22251.71930501  .00003380  00000-0  24574-3 0  9992","EPOCH":"2022-09-08T17:15:47.952864","PERIAPSIS":"546.406"},{"FILE":"3564431","RCS_SIZE":"LARGE","CLASSIFICATION_TYPE":"U","CENTER_NAME":"EARTH","RA_OF_ASC_NODE":"108.6640","INCLINATION":"53.0546","EPHEMERIS_TYPE":"0","ELEMENT_SET_NO":"999","BSTAR":"0.00017742000000","SEMIMAJOR_AXIS":"6925.386","ECCENTRICITY":"0.00014310","TIME_SYSTEM":"UTC","LAUNCH_DATE":"2021-05-15","MEAN_MOTION":"15.06387783","SITE":"AFETR","OBJECT_TYPE":"PAYLOAD","OBJECT_NAME":"STARLINK-2191","ARG_OF_PERICENTER":"85.6618","GP_ID":"212091950","MEAN_MOTION_DOT":"0.00002361","MEAN_ELEMENT_THEORY":"SGP4","EPOCH":"2022-09-08T17:09:07.683264","TLE_LINE1":"1 48565U 21041N   22251.71467226  .00002361  00000-0  17742-3 0  9999","PERIAPSIS":"546.260","REF_FRAME":"TEME","NORAD_CAT_ID":"48565","TLE_LINE2":"2 48565  53.0546 108.6640 0001431  85.6618 274.4534 15.06387783 72580","PERIOD":"95.593","APOAPSIS":"548.242","MEAN_ANOMALY":"274.4534","OBJECT_ID":"2021-041N","COUNTRY_CODE":"US","REV_AT_EPOCH":"7258","DECAY_DATE":null,"MEAN_MOTION_DDOT":"0.0000000000000"},{"MEAN_ELEMENT_THEORY":"SGP4","TLE_LINE1":"1 48566U 21041P   22251.80315429  .00004125  00000-0  29574-3 0  9993","EPOCH":"2022-09-08T19:16:32.530656","PERIAPSIS":"546.249","REF_FRAME":"TEME","PERIOD":"95.593","APOAPSIS":"548.241","NORAD_CAT_ID":"48566","TLE_LINE2":"2 48566  53.0545 118.2465 0001438  65.8159 294.2981 15.06389792 72453","MEAN_ANOMALY":"294.2981","OBJECT_ID":"2021-041P","REV_AT_EPOCH":"7245","COUNTRY_CODE":"US","DECAY_DATE":null,"MEAN_MOTION_DDOT":"0.0000000000000","RCS_SIZE":"MEDIUM","FILE":"3564431","CLASSIFICATION_TYPE":"U","CENTER_NAME":"EARTH","ELEMENT_SET_NO":"999","EPHEMERIS_TYPE":"0","BSTAR":"0.00029574000000","RA_OF_ASC_NODE":"118.2465","INCLINATION":"53.0545","SEMIMAJOR_AXIS":"6925.380","ECCENTRICITY":"0.00014380","LAUNCH_DATE":"2021-05-15","TIME_SYSTEM":"UTC","ARG_OF_PERICENTER":"65.8159","SITE":"AFETR","OBJECT_TYPE":"PAYLOAD","OBJECT_NAME":"STARLINK-2214","MEAN_MOTION":"15.06389792","MEAN_MOTION_DOT":"0.00004125","GP_ID":"212092701"},{"OBJECT_NAME":"STARLINK-2215","SITE":"AFETR","OBJECT_TYPE":"PAYLOAD","MEAN_MOTION":"15.06394652","ARG_OF_PERICENTER":"88.2498","MEAN_MOTION_DOT":"0.00003806","GP_ID":"212092443","ECCENTRICITY":"0.00012470","LAUNCH_DATE":"2021-05-15","TIME_SYSTEM":"UTC","EPHEMERIS_TYPE":"0","ELEMENT_SET_NO":"999","BSTAR":"0.00027431000000","INCLINATION":"53.0544","RA_OF_ASC_NODE":"117.9192","SEMIMAJOR_AXIS":"6925.365","RCS_SIZE":"LARGE","FILE":"3564431","CENTER_NAME":"EARTH","CLASSIFICATION_TYPE":"U","REV_AT_EPOCH":"7246","COUNTRY_CODE":"US","MEAN_MOTION_DDOT":"0.0000000000000","DECAY_DATE":null,"APOAPSIS":"548.094","PERIOD":"95.592","TLE_LINE2":"2 48567  53.0544 117.9192 0001247  88.2498 271.8634 15.06394652 72467","NORAD_CAT_ID":"48567","MEAN_ANOMALY":"271.8634","OBJECT_ID":"2021-041Q","PERIAPSIS":"546.366","TLE_LINE1":"1 48567U 21041Q   22251.88424652  .00003806  00000-0  27431-3 0  9996","EPOCH":"2022-09-08T21:13:18.899328","REF_FRAME":"TEME","MEAN_ELEMENT_THEORY":"SGP4"},{"PERIOD":"95.593","APOAPSIS":"548.242","NORAD_CAT_ID":"48568","TLE_LINE2":"2 48568  53.0540 111.7298 0001423  82.9435 277.1715 15.06386070 72870","MEAN_ANOMALY":"277.1715","OBJECT_ID":"2021-041R","REV_AT_EPOCH":"7287","COUNTRY_CODE":"US","DECAY_DATE":null,"MEAN_MOTION_DDOT":"0.0000000000000","MEAN_ELEMENT_THEORY":"SGP4","PERIAPSIS":"546.271","TLE_LINE1":"1 48568U 21041R   22251.03372214 -.00000078  00000-0  13655-4 0  9993","EPOCH":"2022-09-08T00:48:33.592896","REF_FRAME":"TEME","ECCENTRICITY":"0.00014230","LAUNCH_DATE":"2021-05-15","TIME_SYSTEM":"UTC","SITE":"AFETR","OBJECT_TYPE":"PAYLOAD","MEAN_MOTION":"15.06386070","ARG_OF_PERICENTER":"82.9435","OBJECT_NAME":"STARLINK-2217","MEAN_MOTION_DOT":"-0.00000078","GP_ID":"212065572","RCS_SIZE":"LARGE","FILE":"3564238","CLASSIFICATION_TYPE":"U","CENTER_NAME":"EARTH","EPHEMERIS_TYPE":"0","ELEMENT_SET_NO":"999","BSTAR":"0.00001365500000","RA_OF_ASC_NODE":"111.7298","INCLINATION":"53.0540","SEMIMAJOR_AXIS":"6925.391"},{"SEMIMAJOR_AXIS":"6925.390","EPHEMERIS_TYPE":"0","ELEMENT_SET_NO":"999","BSTAR":"0.00023748000000","INCLINATION":"53.0534","RA_OF_ASC_NODE":"108.0360","CENTER_NAME":"EARTH","CLASSIFICATION_TYPE":"U","RCS_SIZE":"LARGE","FILE":"3564431","GP_ID":"212091450","MEAN_MOTION_DOT":"0.00003256","OBJECT_NAME":"STARLINK-2219","SITE":"AFETR","OBJECT_TYPE":"PAYLOAD","MEAN_MOTION":"15.06386581","ARG_OF_PERICENTER":"91.3273","LAUNCH_DATE":"2021-05-15","TIME_SYSTEM":"UTC","ECCENTRICITY":"0.00012190","REF_FRAME":"TEME","PERIAPSIS":"546.410","TLE_LINE1":"1 48569U 21041S   22251.85568802  .00003256  00000-0  23748-3 0  9997","EPOCH":"2022-09-08T20:32:11.444928","MEAN_ELEMENT_THEORY":"SGP4","DECAY_DATE":null,"MEAN_MOTION_DDOT":"0.0000000000000","REV_AT_EPOCH":"7260","COUNTRY_CODE":"US","OBJECT_ID":"2021-041S","MEAN_ANOMALY":"268.7855","APOAPSIS":"548.099","PERIOD":"95.593","TLE_LINE2":"2 48569  53.0534 108.0360 0001219  91.3273 268.7855 15.06386581 72609","NORAD_CAT_ID":"48569"},{"TLE_LINE1":"1 48570U 21041T   22251.77735734  .00004141  00000-0  29684-3 0  9999","EPOCH":"2022-09-08T18:39:23.674176","PERIAPSIS":"546.188","REF_FRAME":"TEME","MEAN_ELEMENT_THEORY":"SGP4","COUNTRY_CODE":"US","REV_AT_EPOCH":"7244","DECAY_DATE":null,"MEAN_MOTION_DDOT":"0.0000000000000","TLE_LINE2":"2 48570  53.0554 118.3998 0001525  81.6021 278.5141 15.06390190 72447","NORAD_CAT_ID":"48570","APOAPSIS":"548.300","PERIOD":"95.593","MEAN_ANOMALY":"278.5141","OBJECT_ID":"2021-041T","INCLINATION":"53.0554","RA_OF_ASC_NODE":"118.3998","EPHEMERIS_TYPE":"0","BSTAR":"0.00029684000000","ELEMENT_SET_NO":"999","SEMIMAJOR_AXIS":"6925.379","FILE":"3564431","RCS_SIZE":"LARGE","CENTER_NAME":"EARTH","CLASSIFICATION_TYPE":"U","OBJECT_TYPE":"PAYLOAD","SITE":"AFETR","ARG_OF_PERICENTER":"81.6021","OBJECT_NAME":"STARLINK-2220","MEAN_MOTION":"15.06390190","MEAN_MOTION_DOT":"0.00004141","GP_ID":"212092201","ECCENTRICITY":"0.00015250","TIME_SYSTEM":"UTC","LAUNCH_DATE":"2021-05-15"},{"MEAN_MOTION_DOT":"0.00002140","GP_ID":"212092944","ARG_OF_PERICENTER":"79.3206","SITE":"AFETR","OBJECT_TYPE":"PAYLOAD","MEAN_MOTION":"15.06392148","OBJECT_NAME":"STARLINK-2221","TIME_SYSTEM":"UTC","LAUNCH_DATE":"2021-05-15","ECCENTRICITY":"0.00015720","SEMIMAJOR_AXIS":"6925.373","RA_OF_ASC_NODE":"118.3702","INCLINATION":"53.0557","EPHEMERIS_TYPE":"0","BSTAR":"0.00016256000000","ELEMENT_SET_NO":"999","CLASSIFICATION_TYPE":"U","CENTER_NAME":"EARTH","FILE":"3564431","RCS_SIZE":"LARGE","MEAN_MOTION_DDOT":"0.0000000000000","DECAY_DATE":null,"COUNTRY_CODE":"US","REV_AT_EPOCH":"7245","OBJECT_ID":"2021-041U","MEAN_ANOMALY":"280.7960","NORAD_CAT_ID":"48571","TLE_LINE2":"2 48571  53.0557 118.3702 0001572  79.3206 280.7960 15.06392148 72455","PERIOD":"95.593","APOAPSIS":"548.326","REF_FRAME":"TEME","TLE_LINE1":"1 48571U 21041U   22251.78472717  .00002140  00000-0  16256-3 0  9998","PERIAPSIS":"546.149","EPOCH":"2022-09-08T18:50:00.427488","MEAN_ELEMENT_THEORY":"SGP4"},{"MEAN_ELEMENT_THEORY":"SGP4","REF_FRAME":"TEME","PERIAPSIS":"546.104","TLE_LINE1":"1 48572U 21041V   22251.05121613  .00000122  00000-0  27072-4 0  9992","EPOCH":"2022-09-08T01:13:45.073632","MEAN_ANOMALY":"272.5657","OBJECT_ID":"2021-041V","PERIOD":"95.592","APOAPSIS":"548.321","NORAD_CAT_ID":"48572","TLE_LINE2":"2 48572  53.0541 121.6504 0001601  87.5515 272.5657 15.06400306 72349","DECAY_DATE":null,"MEAN_MOTION_DDOT":"0.0000000000000","REV_AT_EPOCH":"7234","COUNTRY_CODE":"US","CLASSIFICATION_TYPE":"U","CENTER_NAME":"EARTH","RCS_SIZE":"LARGE","FILE":"3563723","SEMIMAJOR_AXIS":"6925.348","EPHEMERIS_TYPE":"0","BSTAR":"0.00002707200000","ELEMENT_SET_NO":"999","RA_OF_ASC_NODE":"121.6504","INCLINATION":"53.0541","LAUNCH_DATE":"2021-05-15","TIME_SYSTEM":"UTC","ECCENTRICITY":"0.00016010","MEAN_MOTION_DOT":"0.00000122","GP_ID":"212050245","SITE":"AFETR","OBJECT_TYPE":"PAYLOAD","MEAN_MOTION":"15.06400306","OBJECT_NAME":"STARLINK-2222","ARG_OF_PERICENTER":"87.5515"},{"REF_FRAME":"TEME","TLE_LINE1":"1 48573U 21041W   22251.89254106  .00003612  00000-0  26131-3 0  9990","PERIAPSIS":"546.127","EPOCH":"2022-09-08T21:25:15.547584","MEAN_ELEMENT_THEORY":"SGP4","DECAY_DATE":null,"MEAN_MOTION_DDOT":"0.0000000000000","COUNTRY_CODE":"US","REV_AT_EPOCH":"7260","MEAN_ANOMALY":"283.6202","OBJECT_ID":"2021-041W","TLE_LINE2":"2 48573  53.0546 107.8636 0001590  76.4964 283.6202 15.06395110 72603","NORAD_CAT_ID":"48573","APOAPSIS":"548.330","PERIOD":"95.592","SEMIMAJOR_AXIS":"6925.364","INCLINATION":"53.0546","RA_OF_ASC_NODE":"107.8636","EPHEMERIS_TYPE":"0","BSTAR":"0.00026131000000","ELEMENT_SET_NO":"999","CENTER_NAME":"EARTH","CLASSIFICATION_TYPE":"U","FILE":"3564431","RCS_SIZE":"LARGE","MEAN_MOTION_DOT":"0.00003612","GP_ID":"212091951","SITE":"AFETR","ARG_OF_PERICENTER":"76.4964","OBJECT_TYPE":"PAYLOAD","OBJECT_NAME":"STARLINK-2224","MEAN_MOTION":"15.06395110","TIME_SYSTEM":"UTC","LAUNCH_DATE":"2021-05-15","ECCENTRICITY":"0.00015900"}];
